[{"OBJECT_NAME":"STARLINK-5446","OBJECT_ID":"2022-175AH","EPOCH":"2026-03-09T05:46:11.315136","MEAN_MOTION":15.08828996,"ECCENTRICITY":0.0001598,"INCLINATION":53.2197,"RA_OF_ASC_NODE":15.9031,"ARG_OF_PERICENTER":104.6325,"MEAN_ANOMALY":255.4845,"EPHEMERIS_TYPE":0,"CLASSIFICATION_TYPE":"U","NORAD_CAT_ID":54789,"ELEMENT_SET_NO":999,"REV_AT_EPOCH":18027,"BSTAR":-8.1088323e-5,"MEAN_MOTION_DOT":-1.578e-5,"MEAN_MOTION_DDOT":0},{"OBJECT_NAME":"NANOFF A","OBJECT_ID":"2023-185T","EPOCH":"2026-03-09T23:34:34.415328","MEAN_MOTION":15.11542977,"ECCENTRICITY":0.00086783,"INCLINATION":97.5359,"RA_OF_ASC_NODE":137.8345,"ARG_OF_PERICENTER":292.8968,"MEAN_ANOMALY":67.1346,"EPHEMERIS_TYPE":0,"CLASSIFICATION_TYPE":"U","NORAD_CAT_ID":58810,"ELEMENT_SET_NO":999,"REV_AT_EPOCH":11805,"BSTAR":0.00027314844,"MEAN_MOTION_DOT":4.57e-5,"MEAN_MOTION_DDOT":0}]
